EYESAT-1 (AO-27)        
1 22825U 93061C   17230.88553238  .00000002  00000-0  18542-4 0  9999
2 22825  98.8181 197.2577 0009001 142.2878 217.8936 14.30003072246093
CUTE-1 (CO-55)          
1 27844U 03031E   17230.90748430  .00000063  00000-0  48344-4 0  9996
2 27844  98.6900 239.0020 0010081 159.3892 200.7694 14.22052851733193
CUBESAT XI-IV (CO-57)   
1 27848U 03031J   17230.92427547  .00000043  00000-0  39460-4 0  9992
2 27848  98.6992 239.3038 0009793 168.6607 191.4793 14.21665747733082
CUBESAT XI 5            
1 28895U 05043F   17230.94128062  .00000146  00000-0  36974-4 0  9993
2 28895  97.8719  30.3646 0015680 308.1334  51.8455 14.63421096629437
CUTE-1.7+APD II (CO-65) 
1 32785U 08021C   17230.78528266  .00000270  00000-0  35091-4 0  9994
2 32785  97.5643 252.1916 0012178 327.1684  32.8776 14.87924298504137
COMPASS-1               
1 32787U 08021E   17231.16456070  .00000804  00000-0  83197-4 0  9995
2 32787  97.5564 261.8120 0011026 290.6463  69.3574 14.92662940504898
AAUSAT-II               
1 32788U 08021F   17230.79333009  .00000500  00000-0  52077-4 0  9996
2 32788  97.5549 264.4065 0010336 283.0229  76.9837 14.93939578505025
DELFI-C3 (DO-64)        
1 32789U 08021G   17230.79021379  .00001327  00000-0  97607-4 0  9997
2 32789  97.5539 287.6918 0011433 245.3986 114.6050 15.05035077506189
CANX-2                  
1 32790U 08021H   17230.77657375  .00000239  00000-0  31900-4 0  9993
2 32790  97.5624 250.5169 0012901 328.6537  31.3909 14.87647684504066
SEEDS II (CO-66)        
1 32791U 08021J   17230.75548862  .00000464  00000-0  53172-4 0  9997
2 32791  97.5604 256.7199 0012161 309.6106  50.4038 14.90272296504382
SWISSCUBE               
1 35932U 09051B   17230.94644574  .00000120  00000-0  38206-4 0  9999
2 35932  98.5043  10.6034 0008708  63.6281 296.5810 14.56036312419417
BEESAT                  
1 35933U 09051C   17230.92767878  .00000120  00000-0  37970-4 0  9998
2 35933  98.5081  11.9357 0007040  76.0413 284.1566 14.56153563419470
ITUPSAT 1               
1 35935U 09051E   17230.95055057  .00000079  00000-0  29271-4 0  9990
2 35935  98.5192  12.2131 0009291  69.4057 290.8135 14.55344938419337
TISAT 1                 
1 36799U 10035E   17230.91637442  .00000416  00000-0  48728-4 0  9996
2 36799  98.0688 354.9404 0013731 118.7443 241.5155 14.90449235384927
M-CUBED & EXP-1 PRIME   
1 37855U 11061F   17231.16389323  .00001006  00000-0  60739-4 0  9992
2 37855 101.7069 134.5781 0180000 255.4757 102.6427 15.03230817316256
HORYU 2                 
1 38340U 12025D   17231.09290430  .00000258  00000-0  46108-4 0  9997
2 38340  98.3775 237.2342 0013049  91.8732 268.3971 14.75370969282569
STRAND-1                
1 39090U 13009E   17230.56789000  .00000012  00000-0  19638-4 0  9996
2 39090  98.5493  75.4048 0010281 112.1996 248.0281 14.34977743234407
BRITE-AUSTRIA           
1 39091U 13009F   17231.13731669  .00000034  00000-0  27399-4 0  9996
2 39091  98.5457  75.3353 0011535 118.1441 242.0911 14.35036523234520
UNIBRITE                
1 39092U 13009G   17230.93298120  .00000023  00000-0  23628-4 0  9993
2 39092  98.5467  74.8177 0010467 112.3847 247.8448 14.34910895234462
AIST-2                  
1 39133U 13015D   17231.19219992  .00000182  00000-0  25559-4 0  9996
2 39133  64.8729  86.4385 0038302 271.5416  88.1316 15.04321792237770
SOMP                    
1 39134U 13015E   17230.87473726  .00001618  00000-0  87773-4 0  9999
2 39134  64.8640  24.0883 0038871 253.5984 106.0868 15.17956947238611
BEESAT-2                
1 39136U 13015G   17230.88051206  .00000976  00000-0  61459-4 0  9996
2 39136  64.8701  35.6421 0033702 273.4848  86.2422 15.15216328238777
NEE-01 PEGASUS          
1 39151U 13018B   17230.98963075  .00000183  00000-0  31310-4 0  9996
2 39151  97.9837 322.1146 0016629 202.5722 157.4760 14.79743029232820
CUBEBUG-1 (CAPITAN BETO)
1 39153U 13018D   17231.23037374  .00000248  00000-0  39625-4 0  9990
2 39153  97.9861 323.1938 0016601 199.8550 160.2018 14.80207782232917
ESTCUBE 1               
1 39161U 13021C   17231.08019676  .00000128  00000-0  28357-4 0  9998
2 39161  98.0269 316.2610 0008263 308.9272  51.1205 14.71920840230000
POPACS 1                
1 39268U 13055D   17230.65413866  .00005392  00000-0  15354-3 0  9994
2 39268  81.0049 302.9940 0649659  36.4648 327.9001 14.31476432199656
POPACS 2                
1 39269U 13055E   17231.19718436  .00004018  00000-0  11659-3 0  9994
2 39269  81.0187 318.4042 0700243  76.5464 291.2722 14.20293455200244
POPACS 3                
1 39270U 13055F   17230.70529798  .00002851  00000-0  88476-4 0  9998
2 39270  81.0202 327.6551 0725256 104.4557 263.8168 14.13420511199609
FIREFLY                 
1 39404U 13064AA  17230.50106136  .00062217  00000-0  29955-3 0  9990
2 39404  40.4956 267.9233 0007743 163.5158 196.5925 15.81615651207513
ZACUBE-1 (TSHEPISOSAT)  
1 39417U 13066B   17231.07356713  .00000274  00000-0  40985-4 0  9999
2 39417  97.6247 270.2501 0060714  65.0135 295.7368 14.80742018202083
WNISAT-1                
1 39423U 13066H   17231.21892789  .00000032  00000-0  16278-4 0  9990
2 39423  97.6869 214.3882 0174342 240.9765 117.3879 14.52859264198381
TRITON-1                
1 39427U 13066M   17230.92121169  .00000193  00000-0  38731-4 0  9994
2 39427  97.6376 242.0749 0115172 147.1684 213.6746 14.67487148200057
GOMX 1                  
1 39430U 13066Q   17230.92878960  .00000207  00000-0  46675-4 0  9998
2 39430  97.6680 225.1935 0151142 204.4065 154.9928 14.58898162199075
BRITE-PL                
1 39431U 13066R   17230.91221234  .00000068  00000-0  25429-4 0  9993
2 39431  97.7121 203.1239 0201230 281.6853  76.1824 14.46859186197322
HUMSAT-D                
1 39433U 13066T   17230.71518163  .00000621  00000-0  67064-4 0  9999
2 39433  97.6476 291.9731 0031337  12.2253 347.9719 14.91493405203338
EAGLE 2                 
1 39436U 13066W   17230.83884776  .00028681  00000-0  73246-3 0  9995
2 39436  97.7112 339.9522 0010265 211.4972 148.5659 15.39392119205139
CUBEBUG-2 (LO-74)       
1 39440U 13066AA  17230.63633247  .00000255  00000-0  42514-4 0  9995
2 39440  97.6255 258.5248 0082319  97.7079 263.3488 14.75481411201308
NEE-02 KRYSAOR          
1 39441U 13066AB  17231.01838800  .00000191  00000-0  34187-4 0  9997
2 39441  97.6237 257.5024 0083683 100.1864 260.8797 14.74640789201248
FUNCUBE-1 (AO-73)       
1 39444U 13066AE  17230.68428217  .00000312  00000-0  45027-4 0  9999
2 39444  97.6264 271.0141 0059854  62.8864 297.8438 14.81481783200863
UWE-3                   
1 39446U 13066AG  17230.63555172  .00000258  00000-0  41030-4 0  9996
2 39446  97.6238 263.8757 0072008  82.3231 278.6150 14.78014769200421
BRITE-TORONTO           
1 40020U 14033L   17230.94929858  .00000149  00000-0  33731-4 0  9999
2 40020  97.8271  98.8827 0088728 126.7412 234.1982 14.66408268169291
DUCHIFAT-1              
1 40021U 14033M   17230.82375591  .00000474  00000-0  55045-4 0  9999
2 40021  97.9147 144.0717 0014625  93.8784 266.4106 14.89942022171923
FLOCK 1C-10             
1 40023U 14033P   17231.17430580  .00000237  00000-0  31333-4 0  9991
2 40023  97.9174 143.4143 0013952  97.0393 263.2399 14.88779629171878
NANOSATC-BR1            
1 40024U 14033Q   17230.71994324  .00000387  00000-0  46767-4 0  9995
2 40024  97.9102 142.7560 0013846  95.4633 264.8163 14.89260050171854
QB50P1                  
1 40025U 14033R   17231.20359507  .00000355  00000-0  44270-4 0  9991
2 40025  97.9081 142.1868 0014074  97.0279 263.2539 14.88457285171862
FLOCK 1C-7              
1 40026U 14033S   17230.75697303  .00000502  00000-0  58538-4 0  9996
2 40026  97.9178 143.8013 0012654  94.8408 265.4252 14.89517325171860
FLOCK 1C-1              
1 40027U 14033T   17231.07245843  .00000806  00000-0  91866-4 0  9999
2 40027  97.9201 143.5585 0014145  94.8937 265.3897 14.88846182171873
POPSAT-HIP-1            
1 40028U 14033U   17231.17343988 -.00000024  00000-0  34618-5 0  9996
2 40028  97.9123 142.4489 0015314  95.0461 265.2513 14.88322138171843
FLOCK 1C-2              
1 40029U 14033V   17231.16780093  .00000285  00000-0  36419-4 0  9996
2 40029  97.9163 143.5031 0015266  91.6593 268.6355 14.88857889171877
FLOCK 1C-4              
1 40031U 14033X   17231.05610700  .00000466  00000-0  55847-4 0  9991
2 40031  97.9199 143.3663 0015842  89.5363 270.7694 14.88707531171844
QB50P2                  
1 40032U 14033Y   17230.73180138  .00000288  00000-0  37459-4 0  9994
2 40032  97.9052 140.7704 0013473  93.9117 266.3640 14.88013281171747
FLOCK 1C-11             
1 40033U 14033Z   17230.98397793  .00000084  00000-0  14600-4 0  9996
2 40033  97.9203 144.8454 0013522  85.3467 274.9316 14.90199797171948
ANTELSAT                
1 40034U 14033AA  17230.68127298  .00000232  00000-0  42178-4 0  9991
2 40034  97.8505 112.6495 0060516  91.7342 269.0799 14.73726605169592
FLOCK 1C-9              
1 40035U 14033AB  17231.22141764  .00000524  00000-0  61722-4 0  9997
2 40035  97.9218 143.9483 0013497  83.1941 277.0759 14.88917143171880
FLOCK 1C-6              
1 40036U 14033AC  17231.17072919  .00000260  00000-0  33611-4 0  9990
2 40036  97.9209 144.1203 0013270  85.0503 275.2198 14.89020179171891
PERSEUS-M2              
1 40037U 14033AD  17230.87400531  .00000118  00000-0  19713-4 0  9991
2 40037  97.9070 139.3095 0015909  99.2273 261.0743 14.86243039171624
FLOCK 1C-5              
1 40038U 14033AE  17231.17853166  .00000200  00000-0  27239-4 0  9996
2 40038  97.9188 143.9250 0015506  85.1591 275.1391 14.89003449171884
PERSEUS-M1              
1 40039U 14033AF  17230.82226834  .00000086  00000-0  16194-4 0  9994
2 40039  97.9076 138.7899 0015767  95.8654 264.4359 14.85867112171065
FLOCK 1C-8              
1 40040U 14033AG  17231.15429302  .00000676  00000-0  74224-4 0  9991
2 40040  97.9243 146.2106 0014450  74.4287 285.8510 14.90958662172010
